XRISM                   
1 57800U 23137A   24214.63348602  .00006960  00000+0  51547-3 0  9996
2 57800  31.0032  83.2078 0010006 300.1085  59.8558 15.01734973 49444
